IRIDIUM 57 [-]          
1 25273U 98019B   24034.37175603  .00000504  00000+0  16997-3 0  9994
2 25273  86.3995 354.5722 0002179  87.8397 272.3048 14.35066947353080
IRIDIUM 63 [-]          
1 25286U 98021B   24034.79393872  .00000474  00000+0  15766-3 0  9996
2 25286  86.3979 291.3292 0002298  88.2259 271.9201 14.35591726352443
IRIDIUM 69 [-]          
1 25319U 98026A   24034.28204676  .00000611  00000+0  18854-3 0  9999
2 25319  86.3999 306.3329 0001389 163.6493 196.4751 14.39784068351108
IRIDIUM 71 [-]          
1 25320U 98026B   24034.24263320  .00000533  00000+0  16283-3 0  9995
2 25320  86.3985 301.1431 0001041  13.6365 346.4862 14.40104350351617
IRIDIUM 73 [-]          
1 25344U 98032C   24034.70213482  .00000631  00000+0  15683-3 0  9995
2 25344  86.4386 258.5640 0001610 101.9596 258.1789 14.50273343358439
IRIDIUM 82 [-]          
1 25467U 98051A   24034.38693469  .00017846  00000+0  98214-3 0  9990
2 25467  86.3949 349.4348 0138297 355.6647   4.3377 15.06004751348172
IRIDIUM 2 [-]           
1 25527U 98066A   24034.48559195  .00048136  00000+0  76473-3 0  9990
2 25527  85.5140  29.3842 0007852 106.8106 253.4015 15.53108735386823
